store_num,dist_manager,store_name,street_address,city,state,zip_code,phone_number,manager,latitude,longitude,mon_hours,tues_hours,wed_hours,thurs_hours,fri_hours,sat_hours,sun_hours,shorthand,google_url,apple_url,email,regional_district_manager_email,district_manager_email,area_manager_email,manager_email,mon_open,mon_close,tues_open,tues_close,wed_open,wed_close,thurs_open,thurs_close,fri_open,fri_close,sat_open,sat_close,sun_open,sun_close
2,LaTanya,West University,5524 Weslayan Street,Houston,TX,77005,713-666-2249,Jenara Thompson,29.72292599,-95.44213572,11 - 8,11 - 6,11 - 6,11 - 8,11 - 6,9 - 5,Closed,weslaya,"https://www.google.com/maps/dir//Al's+Formal+Wear,+Weslayan+Plaza,+5524+Weslayan+St,+Houston,+TX+77005/@29.7229251,-95.4443257,17z/data=!3m1!5s0x8640c1aa2bf45dc7:0xe8c76feae2303ec0!4m13!1m4!3m3!1s0x8640c1a9f4f0b405:0x46c021283d3a490a!2sAl's+Formal+Wear!3b1!4m7!1m0!1m5!1m1!1s0x8640c1a9f4f0b405:0x46c021283d3a490a!2m2!1d-95.442137!2d29.7229251","http://maps.apple.com/?daddr=5524,Weslayan+Street,Houston,Texas,77005",store.002@alsformalwear.com,leonard.llanes@alsformalwear.com,latanya.johnson@alsformalwear.com,,jenara.thompson@alsformalwear.com,11,20,11,18,11,18,11,20,11,18,9,17,99,99
5,LaTanya,Northline Commons,"4400 North Freeway, Suite 200B",Houston,TX,77022,713-692-6051,Javier Villegas,29.82990597,-95.38084548,11 - 7,Closed,11 - 6,11 - 7,11 - 6,10 - 5,Closed,nrthlin,"https://www.google.com/maps/dir//Al's+Formal+Wear,+4400+North+Freeway,+Suite+200B,+Northline+Commons,+Houston,+TX+77022/@29.829911,-95.3830317,17z/data=!3m1!5s0x8640b86f7cdece3d:0x7edf0a3a654b54d5!4m13!1m4!3m3!1s0x8640b8657f152c6b:0xf81da5487b8064f4!2sAl's+Formal+Wear!3b1!4m7!1m0!1m5!1m1!1s0x8640b8657f152c6b:0xf81da5487b8064f4!2m2!1d-95.380843!2d29.829911","http://maps.apple.com/?daddr=4400,North+Freeway,Houston,Texas,77022",store.005@alsformalwear.com,leonard.llanes@alsformalwear.com,latanya.johnson@alsformalwear.com,shuranda.rougeau@alsformalwear.com,javier.villegas@alsformalwear.com,11,19,99,99,11,18,11,19,11,18,10,17,99,99
6,LaTanya,Westheimer,7505 Westheimer Road,Houston,TX,77063,713-781-7191,n/a,29.73721651,-95.5014813,11 - 7,Closed,11 - 6,11 - 7,11 - 6,10 - 5,Closed,westhei,"https://www.google.com/maps/dir//Al's+Formal+Wear,+7505+Westheimer+Rd,+Houston,+TX+77063/@29.737217,-95.5036707,17z/data=!4m13!1m4!3m3!1s0x8640c3b920555127:0x598df2fbad6f4b09!2sAl's+Formal+Wear!3b1!4m7!1m0!1m5!1m1!1s0x8640c3b920555127:0x598df2fbad6f4b09!2m2!1d-95.501482!2d29.737217","http://maps.apple.com/?daddr=7505,Westheimer+Road,Houston,Texas,77063",store.006@alsformalwear.com,leonard.llanes@alsformalwear.com,latanya.johnson@alsformalwear.com,,,11,19,99,99,11,18,11,19,11,18,10,17,99,99
17,LaTanya,Medical Center,7807 Main Street,Houston,TX,77030,713-791-1885,Indra Fajardo,29.6948704,-95.41329836,10 - 8,10 - 6,10 - 6,10 - 8,10 - 6,9 - 5,12  - 5,medcntr,"https://www.google.com/maps/dir//Al's+Formal+Wear,+7807+Main+St,+Houston,+TX+77030/@29.69487,-95.4154877,17z/data=!4m13!1m4!3m3!1s0x8640c0166e877601:0x830fdd7c5ef004f0!2sAl's+Formal+Wear!3b1!4m7!1m0!1m5!1m1!1s0x8640c0166e877601:0x830fdd7c5ef004f0!2m2!1d-95.413299!2d29.69487","http://maps.apple.com/?daddr=7807,Main+Street,Houston,Texas,77030",store.017@alsformalwear.com,leonard.llanes@alsformalwear.com,latanya.johnson@alsformalwear.com,,indra.fajardo@alsformalwear.com,10,20,10,18,10,18,10,20,10,18,9,17,12,17
18,LaTanya,Baybrook,"1201 West Bay Area Boulevard, Suite 102",Webster,TX,77598,281-338-6648,Lupe Regalado,29.53774636,-95.14015019,11 - 8,11 - 8,11 - 8,11 - 8,11 - 8,9 - 5,12  - 5,baybroo,"https://www.google.com/maps/dir//Al's+Formal+Wear,+1201+Bay+Area+Boulevard,+Suite+102,+Webster,+TX+77598/@29.537742,-95.1422787,17z/data=!4m13!1m4!3m3!1s0x86409c9cc2ab09d5:0x4e790f9e48c64393!2sAl's+Formal+Wear!3b1!4m7!1m0!1m5!1m1!1s0x86409c9cc2ab09d5:0x4e790f9e48c64393!2m2!1d-95.14009!2d29.537742","http://maps.apple.com/?daddr=1201,Bay+Area+Boulevard,Webster,Texas,77598",store.018@alsformalwear.com,leonard.llanes@alsformalwear.com,latanya.johnson@alsformalwear.com,,lupe.regalado@alsformalwear.com,11,20,11,20,11,20,11,20,11,20,9,17,12,17
301,Leonard,Calder Street,2462 Calder Street,Beaumont,TX,77702,409-832-5984,Scott Massey,30.08587079,-94.12403,11 - 7,11 - 6,11 - 6,11 - 7,11 - 6,10 - 5,Closed,beaumon,"https://www.google.com/maps/dir//Al's+Formal+Wear,+2462+Calder+Ave,+Beaumont,+TX+77702/@30.085869,-94.1262207,17z/data=!4m13!1m4!3m3!1s0x863ecb311dd84c23:0x50a5132d0f5fa9e1!2sAl's+Formal+Wear!3b1!4m7!1m0!1m5!1m1!1s0x863ecb311dd84c23:0x50a5132d0f5fa9e1!2m2!1d-94.124032!2d30.085869","http://maps.apple.com/?daddr=2462,Calder+Avenue,Beaumont,Texas,77702",store.301@alsformalwear.com,leonard.llanes@alsformalwear.com,,randi.castleberry@alsformalwear.com,scott.massey@alsformalwear.com,11,19,11,18,11,18,11,19,11,18,10,17,99,99
304,Leonard,Bryan College Station,"1100 Harvey Road, Suite A",College Station,TX,77840,979-693-0947,R. P. Ramirez,30.62378112,-96.30851977,11 - 8,11 - 6,11 - 6,11 - 8,11 - 6,9 - 5,Closed,collgst,"https://www.google.com/maps/dir//Al's+Formal+Wear,+1100+Harvey+Rd,+College+Station,+TX+77840/@30.623777,-96.3107087,17z/data=!4m13!1m4!3m3!1s0x8646846c4805e6ab:0x570838c920bb0e3e!2sAl's+Formal+Wear!3b1!4m7!1m0!1m5!1m1!1s0x8646846c4805e6ab:0x570838c920bb0e3e!2m2!1d-96.30852!2d30.623777","http://maps.apple.com/?daddr=1100,Harvey+Road,College+Station,Texas,77840",store.304@alsformalwear.com,leonard.llanes@alsformalwear.com,,dandra.jacinto@alsformalwear.com,rp.ramirez@alsformalwear.com,11,20,11,18,11,18,11,20,11,18,9,17,99,99
305,LaTanya,Conroe,1416B North 336 Loop West,Conroe,TX,77304,936-756-8151,Desiree Rosales,30.3341811,-95.48072596,11 - 7,11 - 6,11 - 6,11 - 7,11 - 6,10 - 5,Closed,conroe,"https://www.google.com/maps/dir//Al's+Formal+Wear,+Montgomery+Plaza,+1416+N+Loop+336+W,+Conroe,+TX+77304/@30.334179,-95.4829157,17z/data=!3m1!5s0x86473c1cf36410cf:0x7edf0a3a4b4b72f5!4m13!1m4!3m3!1s0x864738982ab39cd3:0x52f499a4ac9aea84!2sAl's+Formal+Wear!3b1!4m7!1m0!1m5!1m1!1s0x864738982ab39cd3:0x52f499a4ac9aea84!2m2!1d-95.480727!2d30.334179","http://maps.apple.com/?daddr=1416,North+Loop+336+West,Conroe,Texas,77304",store.305@alsformalwear.com,leonard.llanes@alsformalwear.com,latanya.johnson@alsformalwear.com,shuranda.rougeau@alsformalwear.com,desirree.rosales@alsformalwear.com,11,19,11,18,11,18,11,19,11,18,10,17,99,99
307,Leonard,Eastex Freeway,5912 Eastex Freeway,Beaumont,TX,77708,409-898-3862,Randi Castleberry,30.12765281,-94.15644176,11 - 8,11 - 6,11 - 6,11 - 8,11 - 6,9 - 5,12  - 5,easttex,"https://www.google.com/maps/dir//Al's+Formal+Wear,+North+Park+Plaza,+Beaumont,+TX+77708/@30.127643,-94.1586307,17z/data=!4m13!1m4!3m3!1s0x863933635d90d967:0x4999e304176dbca7!2sAl's+Formal+Wear!3b1!4m7!1m0!1m5!1m1!1s0x863933635d90d967:0x4999e304176dbca7!2m2!1d-94.156442!2d30.127643","http://maps.apple.com/?daddr=North+Park+Plaza,Beaumont,Texas,77708",store.307@alsformalwear.com,leonard.llanes@alsformalwear.com,,,randi.castleberry@alsformalwear.com,11,20,11,18,11,18,11,20,11,18,9,17,12,17
308,Leonard,Lufkin,"4600 South Medford Drive, Suite 1220",Lufkin,TX,75901,936-634-5551,Melanie Evans,31.31202962,-94.72579616,11 - 7,11 - 6,11 - 6,11 - 7,11 - 6,10 - 5,Closed,lufkin,"https://www.google.com/maps/dir//Al's+Formal+Wear,+4600+South+Medford,+Suite+1220+Lufkin+Mall,+Lufkin+Mall,+Lufkin,+TX+75901/@31.3152996,-94.7309789,21z/data=!4m13!1m4!3m3!1s0x86383d1b596d063b:0x2940e81a5e6a0855!2sAl's+Formal+Wear!3b1!4m7!1m0!1m5!1m1!1s0x86383d1b596d063b:0x2940e81a5e6a0855!2m2!1d-94.725797!2d31.312024","http://maps.apple.com/?daddr=4600,South+Medford,Lufkin,Texas,75901",store.308@alsformalwear.com,leonard.llanes@alsformalwear.com,,randi.castleberry@alsformalwear.com,melanie.evans@alsformalwear.com,11,19,11,18,11,18,11,19,11,18,10,17,99,99
310,Denise,Colonnade,"9965 I-10 West, Building C",San Antonio,TX,78230,210-558-3622,Lani Moriel,29.53603277,-98.56591734,11 - 8,11 - 6,11 - 6,11 - 8,11 - 6,10 - 5,12  - 5,colonna,"https://www.google.com/maps/dir//Al's+Formal+Wear,+I-10+West+Building+III,+Colonnade+Apartments,+9965+Colonnade+Blvd,+San+Antonio,+TX+78230/@29.53603,-98.5681057,17z/data=!4m13!1m4!3m3!1s0x865c60b7ce6c6511:0x5d8f0015f4fe3cb7!2sAl's+Formal+Wear!3b1!4m7!1m0!1m5!1m1!1s0x865c60b7ce6c6511:0x5d8f0015f4fe3cb7!2m2!1d-98.565917!2d29.53603","http://maps.apple.com/?daddr=9965,West+Interstate+10,San+Antonio+Texas,78230",store.310@alsformalwear.com,leonard.llanes@alsformalwear.com,denise.morales@alsformalwear.com,,lani.moriel@alsformalwear.com,11,20,11,18,11,18,11,20,11,18,10,17,12,17
311,LaTanya,Deerbrook,"20135 Highway 59, Suite B",Humble,TX,77338,281-446-0126,Shuranda Rougeau,30.00737748,-95.26773161,10 - 8,10 - 6,10 - 6,10 - 8,10 - 6,9 - 5,12  - 5,deerbrk,"https://www.google.com/maps/dir//Al's+Formal+Wear,+20135+US-59,+Humble,+TX+77338/@30.0074102,-95.2699067,17z/data=!4m13!1m4!3m3!1s0x8640b255578e55b5:0x5a7f2b98abff78e!2sAl's+Formal+Wear!3b1!4m7!1m0!1m5!1m1!1s0x8640b255578e55b5:0x5a7f2b98abff78e!2m2!1d-95.267718!2d30.0074102","http://maps.apple.com/?daddr=20135,Highway+59+N,Humble,Texas,77338",store.311@alsformalwear.com,leonard.llanes@alsformalwear.com,latanya.johnson@alsformalwear.com,,shuranda.rougeau@alsformalwear.com,10,20,10,18,10,18,10,20,10,18,9,17,12,17
312,Denise,North Star,205 Northwest Loop 410,San Antonio,TX,78216,210-525-1679,Denise Morales,29.52132932,-98.49578779,11 - 8,11 - 7,11 - 7,11 - 8,11 - 7,10 - 5,12  - 5,nrthsta,"https://www.google.com/maps/dir//Al's+Formal+Wear,+205+NW+Loop+410,+San+Antonio,+TX+78216/@29.5147984,-98.4851568,15z/data=!4m13!1m4!3m3!1s0x865c60089b7edef9:0x3028dec888a87c3b!2sAl's+Formal+Wear!3b1!4m7!1m0!1m5!1m1!1s0x865c60089b7edef9:0x3028dec888a87c3b!2m2!1d-98.4957884!2d29.5213286","http://maps.apple.com/?daddr=205,NW+Loop+410,San+Antonio,Texas,78216",store.312@alsformalwear.com,leonard.llanes@alsformalwear.com,denise.morales@alsformalwear.com,,denise.morales@alsformalwear.com,11,20,11,19,11,19,11,20,11,19,10,17,12,17
314,Leonard,Moore Plaza,"5425 South Padre Island Drive, Suite 155",Corpus Christi,TX,78411,361-991-7006,D'Andra Vasquez,27.7088397,-97.3740001,11 - 8,11 - 7,11 - 7,11 - 8,11 - 7,10 - 5,12  - 5,moorepl,"https://www.google.com/maps/dir//Al's+Formal+Wear,+5425+South+Padre+Island+Drive,+Suite+155+Moore,+Moore+Plaza,+Center+Dr,+Corpus+Christi,+TX+78411/@27.708839,-97.3761897,17z/data=!3m1!5s0x8668f594dc7a0d73:0x7edf0a3affaea0d5!4m13!1m4!3m3!1s0x8668f5ea99259f6f:0xb13780dfea5f9a48!2sAl's+Formal+Wear!3b1!4m7!1m0!1m5!1m1!1s0x8668f5ea99259f6f:0xb13780dfea5f9a48!2m2!1d-97.374001!2d27.708839","http://maps.apple.com/?daddr= 5425,South+Padre+Island+Drive,Unit+155,Corpus+Christi,Texas,78411",store.314@alsformalwear.com,leonard.llanes@alsformalwear.com,,,,11,20,11,19,11,19,11,20,11,19,10,17,12,17
315,LaTanya,Willowbrook,7608-A FM 1960 West,Houston,TX,77070,281-955-1978,Russell Hodges,29.96495382,-95.54242237,10 - 8,10 - 8,10 - 8,10 - 8,10 - 8,9 - 5,12  - 5,willowb,"https://www.google.com/maps/dir//Al's+Formal+Wear,+Commons_atWillowbrook,+7608+Cypress+Creek+Pkwy,+Houston,+TX+77070/@29.964953,-95.5446117,17z/data=!3m1!5s0x8640cde9b3c14ec5:0x7edf0a3a33231fd5!4m13!1m4!3m3!1s0x8640e9e7a5a99d0b:0x2f69c508f111a112!2sAl's+Formal+Wear!3b1!4m7!1m0!1m5!1m1!1s0x8640e9e7a5a99d0b:0x2f69c508f111a112!2m2!1d-95.542423!2d29.964953","http://maps.apple.com/?daddr=7608,Cypress+Creek+Parkway,Houston,Texas,77070",store.315@alsformalwear.com,leonard.llanes@alsformalwear.com,latanya.johnson@alsformalwear.com,,russell.hodges@alsformalwear.com,10,20,10,20,10,20,10,20,10,20,9,17,12,17
316,LaTanya,Sugar Land,15511 Southwest Freeway,Sugar Land,TX,77478,281-565-1500,Joseph Frybert,29.60303048,-95.61593694,11 - 8,11 - 6,11 - 6,11 - 8,11 - 6,9 - 5,12  - 5,sugarln,"https://www.google.com/maps/dir//Al's+Formal+Wear,+First+Colony+Commons,+15511+Southwest+Fwy,+Sugar+Land,+TX+77478/@29.60303,-95.6181267,17z/data=!3m1!5s0x8640e6ed6fc1a033:0x41801ecc44bb67b7!4m13!1m4!3m3!1s0x8640e6ed10ffe17f:0xfc6222d711bd6a99!2sAl's+Formal+Wear!3b1!4m7!1m0!1m5!1m1!1s0x8640e6ed10ffe17f:0xfc6222d711bd6a99!2m2!1d-95.615938!2d29.60303","http://maps.apple.com/?daddr=15511,Southwest+Freeway,Sugar+Land,Texas,77478",store.316@alsformalwear.com,leonard.llanes@alsformalwear.com,latanya.johnson@alsformalwear.com,jessica.diaz@alsformalwear.com,joseph.frybert@alsformalwear.com,11,20,11,18,11,18,11,20,11,18,9,17,12,17
317,Leroy,Barton Creek,"2901 South Capital of Texas Highway, Suite 263",Austin,TX,78746,512-328-3777,LeRoy Bryant,30.2567151,-97.8077382,11 - 8,11 - 7,11 - 7,11 - 8,11 - 7,10 - 5,12  - 5,bartonc,"https://www.google.com/maps/dir//Al's+Formal+Wear,+Barton+Creek+Square,+2901+S+Capital+of+Texas+Hwy+%23263,+Austin,+TX+78746/@30.2567151,-97.8099269,17z/data=!3m1!5s0x865b4ae7bf3532d9:0x663c92ccf37156d6!4m13!1m4!3m3!1s0x865b4ae6e0a039c5:0x1e979dde4746393d!2sAl's+Formal+Wear!3b1!4m7!1m0!1m5!1m1!1s0x865b4ae6e0a039c5:0x1e979dde4746393d!2m2!1d-97.8077382!2d30.2567151","http://maps.apple.com/?daddr=2901,South+Capital+of+Texas+Highway,Austin,Texas,78746",store.317@alsformalwear.com,leonard.llanes@alsformalwear.com,leroy.bryant@alsformalwear.com,,iecia.stewart@alsformalwear.com,11,20,11,19,11,19,11,20,11,19,10,17,12,17
502,Donald,Amarillo,"2600 Paramount Boulevard, Suite C-3",Amarillo,TX,79109,806-353-9141,Marty Geist,35.18520667,-101.8750275,11 - 7,11 - 6,11 - 6,11 - 7,11 - 6,10 - 5,Closed,westgat,"https://www.google.com/maps/dir//Al's+Formal+Wear,+2600+Paramount+Blvd+%233,+Amarillo,+TX+79109/@35.185206,-101.8772167,17z/data=!4m13!1m4!3m3!1s0x87015050a62e9367:0x4ef4ae9ed17cdc24!2sAl's+Formal+Wear!3b1!4m7!1m0!1m5!1m1!1s0x87015050a62e9367:0x4ef4ae9ed17cdc24!2m2!1d-101.875028!2d35.185206","http://maps.apple.com/?daddr=2600,Paramount+Boulevard,Suite+3,Amarillo,Texas,79109",store.502@alsformalwear.com,marcus.grimes@alsformalwear.com,donald.doggett@alsformalwear.com,,marty.geist@alsformalwear.com,11,19,11,18,11,18,11,19,11,18,10,17,99,99
503,LaTanya,Pearland,"10645 Broadway Street, Suite 114",Pearland,TX,77584,713-436-3305,Ashley Robertson,29.55649126,-95.38643228,11 - 7,11 - 6,11 - 6,11 - 7,11 - 6,10 - 5,12  - 5,pearlan,"https://www.google.com/maps/dir//Al's+Formal+Wear,+Suite+114+NE+corner+of+at+FM+518,+The+Crossing,+W+Broadway+St,+Pearland,+TX+77584/@29.556487,-95.3886247,17z/data=!4m13!1m4!3m3!1s0x864093310f1c25e9:0x7c3415b540c3ef78!2sAl's+Formal+Wear!3b1!4m7!1m0!1m5!1m1!1s0x864093310f1c25e9:0x7c3415b540c3ef78!2m2!1d-95.386436!2d29.556487","http://maps.apple.com/?daddr=5524,Weslayan+Street,Houston,Texas",store.503@alsformalwear.com,leonard.llanes@alsformalwear.com,latanya.johnson@alsformalwear.com,,ashley.robertson@alsformalwear.com,11,19,11,18,11,18,11,19,11,18,10,17,12,17
504,Leonard,Lake Charles - Ryan,3419 Ryan Street,Lake Charles,LA,70605,337-477-7071,Berlisha Lemelle,30.1955348,-93.21839462,11 - 8,11 - 6,11 - 6,11 - 8,11 - 6,9 - 5,Closed,ryanst,"https://www.google.com/maps/dir//Al's+Formal+Wear,+3419+Ryan+St,+Lake+Charles,+LA+70605/@30.1974631,-93.2229099,21z/data=!4m13!1m4!3m3!1s0x863b844a93f2ff3b:0x9dd0458c0df0973e!2sAl's+Formal+Wear!3b1!4m7!1m0!1m5!1m1!1s0x863b844a93f2ff3b:0x9dd0458c0df0973e!2m2!1d-93.218393!2d30.195534","http://maps.apple.com/?daddr=3419,Ryan+Street,Lake+Charles,Louisiana,70605",store.504@alsformalwear.com,leonard.llanes@alsformalwear.com,,randi.castleberry@alsformalwear.com,berlisha.lemelle@alsformalwear.com,11,20,11,18,11,18,11,20,11,18,9,17,99,99
507,Denise,Rolling Oaks Mall,"6909 North Loop 1604 East, Suite 1124A",San Antonio,TX,78247,210-646-8049,Glenn Brown,29.59670013,-98.35087229,11 - 7,11 - 6,11 - 6,11 - 8,11 - 6,10 - 5,12  - 5,rolloak,"https://www.google.com/maps/dir//Al's+Formal+Wear,+Rolling+Oaks+Mall,+6909+N+Loop+1604+E+%231124a,+San+Antonio,+TX+78247/@29.5966925,-98.3530621,17z/data=!3m1!5s0x865c8dcaf27c92bf:0x7edf0a3aa58065ec!4m13!1m4!3m3!1s0x865c8dcae50877ff:0x7c8cc6a67877fa5!2sAl's+Formal+Wear!3b1!4m7!1m0!1m5!1m1!1s0x865c8dcae50877ff:0x7c8cc6a67877fa5!2m2!1d-98.3508734!2d29.5966925","http://maps.apple.com/?daddr=6909,North+Loop+1604+East,Suite+1124A,San+Antonio,Texas,78247",store.507@alsformalwear.com,leonard.llanes@alsformalwear.com,denise.morales@alsformalwear.com,,glen.brown@alsformalwear.com,11,19,11,18,11,18,11,20,11,18,10,17,12,17
508,Donald,Abilene,3765 Catclaw Drive,Abilene,TX,79606,325-691-0748,Dwana Bradshaw,32.4071513,-99.774113,11 - 7,11 - 6,11 - 6,11 - 7,11 - 6,10 - 5,12  - 5,abilene,"https://www.google.com/maps/dir//Al's+Formal+Wear,+3765+Catclaw+Dr,+Abilene,+TX+79606/@32.4071513,-99.7763017,17z/data=!3m1!5s0x86568c3673b1e6c3:0x3333a570fb409360!4m13!1m4!3m3!1s0x86568c363e933293:0x93f115cd2f108401!2sAl's+Formal+Wear!3b1!4m7!1m0!1m5!1m1!1s0x86568c363e933293:0x93f115cd2f108401!2m2!1d-99.774113!2d32.4071513","http://maps.apple.com/?daddr=3765,Catclaw+Drive,Abilene,Texas,79606",store.508@alsformalwear.com,marcus.grimes@alsformalwear.com,donald.doggett@alsformalwear.com,,dwana.bradshaw@alsformalwear.com,11,19,11,18,11,18,11,19,11,18,10,17,12,17
509,Donald,Lafayette,5725 Johnston Street,Lafayette,LA,70503,337-984-7129,Jimmy Eugenne,30.1712205,-92.0744234,11 - 8,11 - 6,11 - 6,11 - 8,11 - 6,10 - 5,12  - 5,lafayet,"https://www.google.com/maps/dir//Al's+Formal+Wear,+Acadiana+Mall,+5725+Johnston+St+%232054,+Lafayette,+LA+70503/@30.1712205,-92.0766121,17z/data=!3m1!5s0x86249e721d6f9c01:0xf07d58fbf6e8eccb!4m13!1m4!3m3!1s0x86249e721cede08d:0x269b8e7ac2567953!2sAl's+Formal+Wear!3b1!4m7!1m0!1m5!1m1!1s0x86249e721cede08d:0x269b8e7ac2567953!2m2!1d-92.0744234!2d30.1712205","http://maps.apple.com/?daddr=5725,Johnston+Street,Suite+2054,Lafayette,Louisiana,70503",store.509@alsformalwear.com,leonard.llanes@alsformalwear.com,donald.daniels@alsformalwear.com,,jimmy.eugene@alsformalwear.com,11,20,11,18,11,18,11,20,11,18,10,17,12,17
510,Donald,Odessa,"4101 East 42nd Street, Suite L-36",Odessa,TX,79762,432-367-3461,Brian Manchester,31.894248,-102.338454,11 - 7,11 - 6,11 - 6,11 - 7,11 - 6,11 - 5,12  - 5,odessa,"https://www.google.com/maps/dir//Al's+Formal+Wear,+%23L-36,+Music+City+Mall,+4101+E+42nd+St,+Odessa,+TX+79762/@31.894248,-102.3406427,17z/data=!3m1!5s0x86fbcf2ec1147895:0x7edf0a3a00737705!4m13!1m4!3m3!1s0x86fbcf2bfc93e23d:0x73972cef29875594!2sAl's+Formal+Wear!3b1!4m7!1m0!1m5!1m1!1s0x86fbcf2bfc93e23d:0x73972cef29875594!2m2!1d-102.338454!2d31.894248","http://maps.apple.com/?daddr=4101,East+42nd+Street,Suite+L-36,Odessa,Texas,79762",store.510@alsformalwear.com,marcus.grimes@alsformalwear.com,donald.doggett@alsformalwear.com,,brian.manchester@alsformalwear.com,11,19,11,18,11,18,11,19,11,18,11,17,12,17
511,Donald,San Angelo,2005 Knickerbocker Road,San Angelo,TX,76904,325-949-9595,Brisa Sosa,31.4271532,-100.4594778,11 - 7,Closed,11 - 6,11 - 7,11 - 6,10 - 5,Closed,sanange,"https://www.google.com/maps/dir//Al's+Formal+Wear,+Stadium+Park+Shopping+Center,+2005+Knickerbocker+Rd,+San+Angelo,+TX+76904/@31.427276,-100.4618037,17z/data=!4m13!1m4!3m3!1s0x8657e575602d0457:0x5b382b7b662070ab!2sAl's+Formal+Wear!3b1!4m7!1m0!1m5!1m1!1s0x8657e575602d0457:0x5b382b7b662070ab!2m2!1d-100.459615!2d31.427276","http://maps.apple.com/?daddr=5524,Weslayan+Street,Houston,Texas",store.511@alsformalwear.com,marcus.grimes@alsformalwear.com,donald.doggett@alsformalwear.com,,brisa.sosa@alsformalwear.com,11,19,99,99,11,18,11,19,11,18,10,17,99,99
512,Donald,Midland,"4511 North Midkiff Road, Suite A-2",Midland,TX,79705,432-694-1288,Kayla Hallback,32.03067,-102.133355,11 - 7,Closed,11 - 6,11 - 7,11 - 6,10 - 5,12  - 5,midland,"https://www.google.com/maps/dir//Al's+Formal+Wear,+Midland+Park+Mall,+4511+N+Midkiff+Rd+%232,+Midland,+TX+79705/@32.03067,-102.1355437,17z/data=!3m1!5s0x86fbd93a5f4e0a8f:0x7edf0a3ae08d1fdc!4m13!1m4!3m3!1s0x86fbd925342903ef:0x8a0672908e9aad27!2sAl's+Formal+Wear!3b1!4m7!1m0!1m5!1m1!1s0x86fbd925342903ef:0x8a0672908e9aad27!2m2!1d-102.133355!2d32.03067","http://maps.apple.com/?daddr=4511,North+Midkiff+Road,Suite+2,Midland,Texas,79705",store.512@alsformalwear.com,marcus.grimes@alsformalwear.com,donald.doggett@alsformalwear.com,brian.manchester@alsformalwear.com,kayla.hallback@alsformalwear.com,11,19,99,99,11,18,11,19,11,18,10,17,12,17
515,Denise,Ingram Heights,5841 Northwest Loop 410,San Antonio,TX,78238,210-680-0946,Belinda Garcia,29.477541,-98.61005,11 - 8,11 - 7,11 - 7,11 - 8,11 - 7,10 - 5,12  - 5,ingramh,"https://www.google.com/maps/dir//Al's+Formal+Wear,+5841+NW+Loop+410,+San+Antonio,+TX+78238/@29.477541,-98.6122387,17z/data=!4m13!1m4!3m3!1s0x865c5da5d0107eef:0xa2f2006c9012ff7!2sAl's+Formal+Wear!3b1!4m7!1m0!1m5!1m1!1s0x865c5da5d0107eef:0xa2f2006c9012ff7!2m2!1d-98.61005!2d29.477541","http://maps.apple.com/?daddr=5841,Northwest+Loop+410,San+Antonio,Texas,78238",store.515@alsformalwear.com,leonard.llanes@alsformalwear.com,denise.morales@alsformalwear.com,lani.moriel@alsformalwear.com,belinda.garcia@alsformalwear.com,11,20,11,19,11,19,11,20,11,19,10,17,12,17
517,Donald,Allen,"190 East Stacy Road, Suite 308",Allen,TX,75002,972-912-3222,Ken Thornton,33.129094,-96.656855,11 - 7,Closed,11 - 6,11 - 7,11 - 6,10 - 5,Closed,allen,"https://www.google.com/maps/dir//Al's+Formal+Wear,+190+%23+The+Village+at+Allen,+The+Village+at+Allen,+E+Stacy+Rd+%23308,+Allen,+TX+75002/@33.129094,-96.6590437,17z/data=!3m1!5s0x864c11290a2f11fd:0x7edf0a3a2f2993f5!4m13!1m4!3m3!1s0x864c11290be90207:0xf10128a2b5d80d94!2sAl's+Formal+Wear!3b1!4m7!1m0!1m5!1m1!1s0x864c11290be90207:0xf10128a2b5d80d94!2m2!1d-96.656855!2d33.129094","http://maps.apple.com/?daddr=190,East+Stacy+Road,Suite+308,Allen,Texas,75002",store.517@alsformalwear.com,marcus.grimes@alsformalwear.com,donald.doggett@alsformalwear.com,victoria.rohre@alsformalwear.com,,11,19,99,99,11,18,11,19,11,18,10,17,99,99
603,Marshall,Loveland Centerra,"6055 Sky Pond Drive, Suite P142",Loveland,CO,80538,970-667-9709,Morris Clyburn,40.4188929,-104.9888483,11 - 7,11 - 6,11 - 6,11 - 7,11 - 6,10 - 5,12  - 5,lovelan,"https://www.google.com/maps/dir//Al's+Formal+Wear,+6055+Sky+Pond+Drive,+Suite+P142,+Promenade+at+Centerra,+The+Promenade+Shops+At+Centerra,+Loveland,+CO+80538/@40.4188929,-104.991037,17z/data=!3m1!5s0x876eacfe2750f199:0x57bb9a6a0ce9895b!4m13!1m4!3m3!1s0x876eacfe6fb31fb9:0x969fe84ba58e2511!2sAl's+Formal+Wear!3b1!4m7!1m0!1m5!1m1!1s0x876eacfe6fb31fb9:0x969fe84ba58e2511!2m2!1d-104.9888483!2d40.4188929","http://maps.apple.com/?daddr=6055,Sky+Pond+Drive,Suite+P142,Promenade+at+Centerra,Loveland,Colorado,80538",store.603@alsformalwear.com,marcus.grimes@alsformalwear.com,morris.clyburn@alsformalwear.com,morris.clyburn@alsformalwear.com,ken.thornton@alsformalwear.com,11,19,11,18,11,18,11,19,11,18,10,17,12,17
605,Marshall,Chapel Hills Mall,"1710 Briargate Boulevard, Suite 428",Colorado Springs,CO,80920,719-598-2325,Olivia WIlliams,38.9468126,-104.7950549,11 - 7,Closed,11 - 6,11 - 7,11 - 6,10 - 5,Closed,chapelh,"https://www.google.com/maps/dir//Al's+Formal+Wear,+Chapel+Hills+Mall,+1710+Briargate+Blvd+%23428,+Colorado+Springs,+CO+80920/@38.9468126,-104.7972436,17z/data=!3m1!5s0x87134e811f521587:0x7edf0a3a71fdc3d0!4m13!1m4!3m3!1s0x87134e80e1b6494b:0xc4fc677c9d8c903a!2sAl's+Formal+Wear!3b1!4m7!1m0!1m5!1m1!1s0x87134e80e1b6494b:0xc4fc677c9d8c903a!2m2!1d-104.7950549!2d38.9468126","http://maps.apple.com/?daddr=1710,Briargate+Boulevard,Suite+428,Colorado+Springs,Colorado,80920",store.605@alsformalwear.com,marcus.grimes@alsformalwear.com,,shannon.sublett@alsformalwear.com,,11,19,99,99,11,18,11,19,11,18,10,17,99,99
606,Marshall,Southwest Plaza Mall,"8501 West Bowles Avenue, Suite 2C929",Littleton,CO,80123,303-972-0544,Shannon Sublett,39.611695,-105.097078,11 - 7,Closed,11 - 6,11 - 7,11 - 6,10 - 5,Closed,swplaza,"https://www.google.com/maps/dir//Al's+Formal+Wear,+8501+West+Bowles+Avenue,+Suite+2C929,+Southwest+Plaza+Mall,+Southwest+Plaza,+Littleton,+CO+80123/@39.611695,-105.0992667,17z/data=!3m1!5s0x876b7f1a104eb4a1:0x7edf0a3a6807bb90!4m13!1m4!3m3!1s0x876b7f19a77ab1a5:0xf8078e0b2b5bc83d!2sAl's+Formal+Wear!3b1!4m7!1m0!1m5!1m1!1s0x876b7f19a77ab1a5:0xf8078e0b2b5bc83d!2m2!1d-105.097078!2d39.611695","http://maps.apple.com/?daddr=8501,West+Bowles+Avenue,Suite+2C929,Littleton,+Colorado,80123",store.606@alsformalwear.com,marcus.grimes@alsformalwear.com,,shannon.sublett@alsformalwear.com,shannon.sublett@alsformalwear.com,11,19,99,99,11,18,11,19,11,18,10,17,99,99
608,Marshall,Lakewood City Commons,"7660 West Virginia Avenue, Suite A",Lakewood,CO,80226,303-980-5999,Jessica Bradford,39.706546,-105.081995,11 - 7,Closed,11 - 6,11 - 7,11 - 6,10 - 5,Closed,lakewoo,"https://www.google.com/maps/dir//Al's+Formal+Wear,+7660+West+Virginia+Avenue,+Suite+A,+Lakewood+City+Commons,+Lakewood,+CO+80226/@39.706546,-105.0841837,17z/data=!4m13!1m4!3m3!1s0x876b81204dbfcdcb:0x3a3e4fe2251cd6eb!2sAl's+Formal+Wear!3b1!4m7!1m0!1m5!1m1!1s0x876b81204dbfcdcb:0x3a3e4fe2251cd6eb!2m2!1d-105.081995!2d39.706546","http://maps.apple.com/?daddr= 7660,West+Virginia+Avenue,Unit+A,Lakewood,Colorado,80226",store.608@alsformalwear.com,marcus.grimes@alsformalwear.com,,shannon.sublett@alsformalwear.com,jessica.bradford@alsformalwear.com,11,19,99,99,11,18,11,19,11,18,10,17,99,99
611,Marshall,Centennial Promenade,9617 East County Line Road,Englewood,CO,80112,303-706-0001,Shannon McGee,39.56757,-104.876083,11 - 7,11 - 6,11 - 6,11 - 7,11 - 6,10 - 5,Closed,centenn,"https://www.google.com/maps/dir//Al's+Formal+Wear,+9617+East+County+Line+Road,+Englewood,+CO/@39.5675647,-104.9111882,13z/data=!3m2!4b1!5s0x876c85b9305be771:0xe8c76feaa0799120!4m8!4m7!1m0!1m5!1m1!1s0x876c85b985970399:0xfb149b7f323b17b2!2m2!1d-104.876083!2d39.56757","http://maps.apple.com/?daddr=9617,East+County+Line+Road,Englewood,Colorado,80112",store.611@alsformalwear.com,marcus.grimes@alsformalwear.com,,shannon.sublett@alsformalwear.com,shannon.mcgee@alsformalwear.com,11,19,11,18,11,18,11,19,11,18,10,17,99,99
613,Marshall,Northglenn Market Place,"10620 Melody Drive, Suite 18",Northglenn,CO,80234,303-252-1010,Shirley Ramos,39.8893199,-104.9924344,11 - 7,11 - 6,11 - 6,11 - 7,11 - 6,10 - 5,12  - 5,nrthgle,"https://www.google.com/maps/dir//Al's+Formal+Wear,+10620+Melody+Drive+%2318,+Northglenn,+CO+80234/@39.8892987,-105.0013636,15z/data=!3m1!5s0x876c767b42f5b09f:0xdef2b13f4bd6cac!4m8!4m7!1m0!1m5!1m1!1s0x876c76634dc247d7:0xc6187ffca065daa!2m2!1d-104.9924344!2d39.8893199","http://maps.apple.com/?daddr=10620,Melody+Drive,Suite+18,Northglenn,Colorado,80234",store.613@alsformalwear.com,marcus.grimes@alsformalwear.com,marshall.wood@alsformalwear.com,morris.clyburn@alsformalwear.com,sherri.ramos@alsformalwear.com,11,19,11,18,11,18,11,19,11,18,10,17,12,17
614,Marshall,Cherry Creek North,"201 Steele Street, Suite 1H",Denver,CO,80206,720-941-2999,Marshall Wood,39.7196969,-104.950112,10 - 7,10 - 6,10 - 6,10 - 7,10 - 6,10 - 5,12  - 5,cherryc,"https://www.google.com/maps/dir//Al's+Formal+Wear,+Cherry+Creek+North+Business+Improvement+District,+201+Steele+St+%231h,+Denver,+CO+80206/@39.7196969,-104.9523007,17z/data=!4m13!1m4!3m3!1s0x876c7e99db02eb91:0x3631b82ec384d5b!2sAl's+Formal+Wear!3b1!4m7!1m0!1m5!1m1!1s0x876c7e99db02eb91:0x3631b82ec384d5b!2m2!1d-104.950112!2d39.7196969","http://maps.apple.com/?daddr=201,Steele+Street,Suite+1H,Denver,Colorado,80206",store.614@alsformalwear.com,marcus.grimes@alsformalwear.com,marshall.wood@alsformalwear.com,,,10,19,10,18,10,18,10,19,10,18,10,17,12,17
615,Marshall,Aurora City Place,"14261 East Cedar Ave., Suite C",Aurora,CO,80012,303-577-3333,Jamandrea Jones,39.713095,-104.821834,11 - 7,Closed,11 - 6,11 - 7,11 - 6,10 - 5,Closed,aurorac,"https://www.google.com/maps/dir//Al's+Formal+Wear,+14261+East+Cedar+Avenue,+Suite+C,+Aurora+City+Place,+Aurora,+CO+80012/@39.713095,-104.8240227,17z/data=!4m13!1m4!3m3!1s0x876c62e76195108f:0x5b2b43933cf50b02!2sAl's+Formal+Wear!3b1!4m7!1m0!1m5!1m1!1s0x876c62e76195108f:0x5b2b43933cf50b02!2m2!1d-104.821834!2d39.713095","http://maps.apple.com/?daddr=14261,East+Cedar+Avenue,Suite+C,Aurora,Colorado,80012",store.615@alsformalwear.com,marcus.grimes@alsformalwear.com,marshall.wood@alsformalwear.com,morris.clyburn@alsformalwear.com,jay.jones@alsformalwear.com,11,19,99,99,11,18,11,19,11,18,10,17,99,99
701,LaTanya,Baytown,4810A IH-10 East,Baytown,TX,77521,281-421-1303,Ana Quintana,29.803569,-94.985147,11 - 8,11 - 6,11 - 6,11 - 8,11 - 6,9 - 5,Closed,baytown,"https://www.google.com/maps/dir//Al's+Formal+Wear,+San+Jacinto+Mall,+16900+Garth+Rd,+Baytown,+TX+77521/@29.803569,-94.9873357,17z/data=!4m13!1m4!3m3!1s0x863f5958d4ed5171:0xb7f7991351938f8b!2sAl's+Formal+Wear!3b1!4m7!1m0!1m5!1m1!1s0x863f5958d4ed5171:0xb7f7991351938f8b!2m2!1d-94.985147!2d29.803569","http://maps.apple.com/?daddr=16900,Garth+Road,Baytown,Texas,77521",store.701@alsformalwear.com,leonard.llanes@alsformalwear.com,latanya.johnson@alsformalwear.com,shuranda.rougeau@alsformalwear.com,ana.quintana@alsformalwear.com,11,20,11,18,11,18,11,20,11,18,9,17,99,99
702,LaTanya,Post Oak Uptown,"1801 Post Oak Boulevard., Suite 1A",Houston,TX,77056,713-622-5700,Arthur Warnock,29.747507,-95.460875,11 - 8,11 - 6,11 - 6,11 - 8,11 - 6,10 - 5,Closed,postoak,"https://www.google.com/maps/dir//Al's+Formal+Wear,+1801+Post+Oak+Blvd,+Houston,+TX+77056/@29.747507,-95.4630637,17z/data=!4m13!1m4!3m3!1s0x8640c14194b7e1b7:0x5b1288839d6f94a3!2sAl's+Formal+Wear!3b1!4m7!1m0!1m5!1m1!1s0x8640c14194b7e1b7:0x5b1288839d6f94a3!2m2!1d-95.460875!2d29.747507","http://maps.apple.com/?daddr=1801,Post+Oak+Boulevard,Houston,Texas,77056",store.702@alsformalwear.com,leonard.llanes@alsformalwear.com,latanya.johnson@alsformalwear.com,,arthur.wamock@alsformalwear.com,11,20,11,18,11,18,11,20,11,18,10,17,99,99
704,Donald,Arlington Highlands,"137 Merchants Row, Suite 141",Arlington,TX,76018,817-784-9991,Valerie Byrd,32.681749,-97.112544,11 - 8,11 - 6,11 - 6,11 - 8,11 - 6,10 - 5,12  - 5,southco,"https://www.google.com/maps/dir//Al's+Formal+Wear,+137+Merchants+Row,+Suite+141,+Arlington+Highlands,+Arlington,+TX+76018/@32.681749,-97.1147327,17z/data=!3m1!5s0x864e62b8e8eab6a9:0x7edf0a3a0507acd5!4m13!1m4!3m3!1s0x864e62e0497fd165:0x3954cd5c9f719a08!2sAl's+Formal+Wear!3b1!4m7!1m0!1m5!1m1!1s0x864e62e0497fd165:0x3954cd5c9f719a08!2m2!1d-97.112544!2d32.681749","http://maps.apple.com/?daddr=137,Merchants+Row,Suite+141,Arlington,Texas,76018",store.704@alsformalwear.com,marcus.grimes@alsformalwear.com,donald.doggett@alsformalwear.com,dale.harper@alsformalwear.com,valerie.byrd@alsformalwear.com,11,20,11,18,11,18,11,20,11,18,10,17,12,17
707,Leonard,Victoria,6302 North Navarro Street,Victoria,TX,77904,361-572-3600,Alexis Ortiz,28.853883,-96.996622,11 - 8,11 - 6,11 - 6,11 - 8,11 - 6,10 - 5,Closed,victori,"https://www.google.com/maps/dir//Al's+Formal+Wear,+6302+N+Navarro+St,+Victoria,+TX+77904/@28.853883,-96.9988107,17z/data=!4m13!1m4!3m3!1s0x8642674fe116000d:0x3eb3bf17a05b7f9e!2sAl's+Formal+Wear!3b1!4m7!1m0!1m5!1m1!1s0x8642674fe116000d:0x3eb3bf17a05b7f9e!2m2!1d-96.996622!2d28.853883","http://maps.apple.com/?daddr=6302,North+Navarro+Street,Victoria,Texas,77904",store.707@alsformalwear.com,leonard.llanes@alsformalwear.com,,dandra.jacinto@alsformalwear.com,alexis.ortiz@alsformalwear.com,11,20,11,18,11,18,11,20,11,18,10,17,99,99
708,LaTanya,Woodlands Mall,"1201 Lake Woodlands Drive, Suite 1218",Spring,TX,77380,281-362-7888,Prescilla Chapman,30.1646107,-95.4572849,10 - 8,10 - 8,10 - 8,10 - 8,10 - 8,10 - 6,12  - 6,woodlan,"https://www.google.com/maps/dir//Al's+Formal+Wear,+The+Woodlands+Mall,+1201+Lake+Woodlands+Dr+%231218,+Spring,+TX+77380/@30.164141,-95.4572027,17z/data=!4m13!1m4!3m3!1s0x8647312481cdb0e1:0x39b281047dd4d902!2sAl's+Formal+Wear!3b1!4m7!1m0!1m5!1m1!1s0x8647312481cdb0e1:0x39b281047dd4d902!2m2!1d-95.455014!2d30.164141","http://maps.apple.com/?daddr=1201,Lake+Woodlands+Drive,Suite+1218,Spring,Texas,77380",store.708@alsformalwear.com,leonard.llanes@alsformalwear.com,latanya.johnson@alsformalwear.com,shuranda.rougeau@alsformalwear.com,prescilla.chapman@alsformalwear.com,10,20,10,20,10,20,10,20,10,20,10,18,12,18
710,Donald,Vista Ridge Mall,"2401 Stemmons Freeway, Suite 2096",Lewisville,TX,75067,972-316-1500,Quyen Phan,33.002926,-96.971914,11 - 7,11 - 6,11 - 6,11 - 7,11 - 6,10 - 6,12  - 5,vridge,"https://www.google.com/maps/dir//Al's+Formal+Wear,+%232096,+Vista+Ridge+Mall,+2401+S+Stemmons+Fwy,+Lewisville,+TX+75067/@33.002926,-96.9741027,17z/data=!3m1!5s0x864c2ee682521409:0xb825fcec6614ea65!4m13!1m4!3m3!1s0x864c2ee68fffffff:0xa0fd55eafa27f0bc!2sAl's+Formal+Wear!3b1!4m7!1m0!1m5!1m1!1s0x864c2ee68fffffff:0xa0fd55eafa27f0bc!2m2!1d-96.971914!2d33.002926","http://maps.apple.com/?daddr=2401,Stemmons+Freeway,Suite+2096,Lewisville,Texas,75067",store.710@alsformalwear.com,marcus.grimes@alsformalwear.com,donald.doggett@alsformalwear.com,victoria.rohre@alsformalwear.com,quyen.phan@alsformalwear.com,11,19,11,18,11,18,11,19,11,18,10,18,12,17
714,Leroy,Lakeline Mall,"11200 Lakeline Mall Drive, Suite E-8",Austin,TX,78613,512-335-4700,Jaxs Luera,30.471005,-97.805753,11 - 8,11 - 7,11 - 7,11 - 8,11 - 7,10 - 5,12  - 5,lakelin,"https://www.google.com/maps/dir//Al's+Formal+Wear,+11200+%23E-8+Lakeline+Mall,+Lakeline+Mall,+Lakeline+Mall+Dr,+Austin,+TX+78613/@30.471005,-97.8079417,17z/data=!3m1!5s0x865b32989d6309f7:0x7edf0a3a9894159c!4m13!1m4!3m3!1s0x865b32988bba76bf:0x8e40968b3999bd24!2sAl's+Formal+Wear!3b1!4m7!1m0!1m5!1m1!1s0x865b32988bba76bf:0x8e40968b3999bd24!2m2!1d-97.805753!2d30.471005","http://maps.apple.com/?daddr=11200,Lakeline+Mall+Driv, Suite+E-8,Austin,Texas,78613",store.714@alsformalwear.com,leonard.llanes@alsformalwear.com,leroy.bryant@alsformalwear.com,,mariam.layne@alsformalwear.com,11,20,11,19,11,19,11,20,11,19,10,17,12,17
717,Donald,Oak Lawn,3400 Oak Lawn Avenue,Dallas,TX,75219,214-520-8897,Bryant Brown,32.8109805,-96.8064571,11 - 7,11 - 6,11 - 6,11 - 7,11 - 7,10 - 5,Closed,oaklawn,"https://www.google.com/maps/dir//Al's+Formal+Wear,+3400+Oak+Lawn+Ave,+Dallas,+TX+75219/@32.8126937,-96.8111349,18z/data=!4m13!1m4!3m3!1s0x864e9eceed541c8f:0x6a2b5f230a844c6d!2sAl's+Formal+Wear!3b1!4m7!1m0!1m5!1m1!1s0x864e9eceed541c8f:0x6a2b5f230a844c6d!2m2!1d-96.8064571!2d32.8109805","http://maps.apple.com/?daddr=3400,Oak+Lawn+Avenue,Dallas,Texas,75219",store.717@alsformalwear.com,marcus.grimes@alsformalwear.com,donald.doggett@alsformalwear.com,jason.crouse@alsformalwear.com,bryant.brown@alsformalwear.com,11,19,11,18,11,18,11,19,11,18,10,17,99,99
718,Donald,Mesquite,"1765 North Town East Boulevard, Suite 150A",Mesquite,TX,75150,972-686-5200,Alexander Zamora,32.811312,-96.625771,11 - 7,11 - 6,11 - 6,11 - 7,11 - 6,10 - 5,12  - 5,towneas,"https://www.google.com/maps/dir//Al's+Formal+Wear,+Market+East,+1765+N+Town+E+Blvd,+Mesquite,+TX+75150/@32.811312,-96.6279597,17z/data=!4m13!1m4!3m3!1s0x864ea42bd7c248c1:0x7617d30e8f286d85!2sAl's+Formal+Wear!3b1!4m7!1m0!1m5!1m1!1s0x864ea42bd7c248c1:0x7617d30e8f286d85!2m2!1d-96.625771!2d32.811312","http://maps.apple.com/?daddr=1765,North+Town+East+Boulevard,Mesquite,Texas,75150",store.718@alsformalwear.com,marcus.grimes@alsformalwear.com,donald.doggett@alsformalwear.com,jason.crouse@alsformalwear.com,alex.zamora@alsformalwear.com,11,19,11,18,11,18,11,19,11,18,10,17,12,17
719,Donald,Irving Towne Center,"3401 West Airport Freeway, Suite 122",Irving,TX,75062,972-594-8445,Gabby Nunez,32.839479,-96.991877,11 - 7,Closed,11 - 6,11 - 7,11 - 6,10 - 5,12  - 5,towncnt,"https://www.google.com/maps/dir//Al's+Formal+Wear,+Irving+Towne+Center,+3401+W+Airport+Fwy+%23122,+Irving,+TX+75062/@32.839479,-96.9940657,17z/data=!3m1!5s0x864e82335e870693:0x7edf0a3ac1a4de55!4m13!1m4!3m3!1s0x864e823341dc67fd:0x8e4fd91b57e965b5!2sAl's+Formal+Wear!3b1!4m7!1m0!1m5!1m1!1s0x864e823341dc67fd:0x8e4fd91b57e965b5!2m2!1d-96.991877!2d32.839479","http://maps.apple.com/?daddr=3401,West+Airport+Freeway,Unit #122,Irving,Texas,75062",store.719@alsformalwear.com,marcus.grimes@alsformalwear.com,donald.doggett@alsformalwear.com,dale.harper@alsformalwear.com,gabby.nunez@alsformalwear.com,11,19,99,99,11,18,11,19,11,18,10,17,12,17
720,Donald,Plano,"1017 North Central Expressway, Suite 110",Plano,TX,75075,972-423-6733,Paul Shearin,33.016076,-96.709901,11 - 7,Closed,11 - 6,11 - 7,11 - 6,10 - 5,12  - 5,collinc,"https://www.google.com/maps/dir//Al's+Formal+Wear,+1017+%23110,+Collin+Creek+Mall,+N+Central+Expy,+Plano,+TX+75075/@33.016076,-96.7120897,17z/data=!4m13!1m4!3m3!1s0x864c18e1a19bb90d:0x5d206c0aed5be8b8!2sAl's+Formal+Wear!3b1!4m7!1m0!1m5!1m1!1s0x864c18e1a19bb90d:0x5d206c0aed5be8b8!2m2!1d-96.709901!2d33.016076","http://maps.apple.com/?daddr=1017,North+Central+Expressway,Suite 110,Plano,Texas,75075",store.720@alsformalwear.com,marcus.grimes@alsformalwear.com,donald.doggett@alsformalwear.com,jason.crouse@alsformalwear.com,paul.shearin@alsformalwear.com,11,19,99,99,11,18,11,19,11,18,10,17,12,17
721,LaTanya,Meyerland,4926 Beechnut Street,Houston,TX,77096,713-669-8100,Trayna Sanders,29.689566,-95.46387,11 - 7,Closed,11 - 6,11 - 7,11 - 6,10 - 5,Closed,meyrlan,"https://www.google.com/maps/dir//Al's+Formal+Wear,+4926+Beechnut+St,+Houston,+TX+77096/@29.689566,-95.4660587,17z/data=!4m13!1m4!3m3!1s0x8640c1e88828dd71:0x79dec9c5e0cc1e35!2sAl's+Formal+Wear!3b1!4m7!1m0!1m5!1m1!1s0x8640c1e88828dd71:0x79dec9c5e0cc1e35!2m2!1d-95.46387!2d29.689566","http://maps.apple.com/?daddr=4926,Beechnut+Street,Houston,Texas,77096",store.721@alsformalwear.com,leonard.llanes@alsformalwear.com,latanya.johnson@alsformalwear.com,,trayna.sanders@alsformalwear.com,11,19,99,99,11,18,11,19,11,18,10,17,99,99
722,Bill,French Market,6310A North May Avenue,Oklahoma City,OK,73112,405-842-3400,Alice Leftwich,35.535236,-97.565203,11 - 7,11 - 6,11 - 6,11 - 7,11 - 6,10 - 5,12  - 5,frenchm,"https://www.google.com/maps/dir//Al's+Formal+Wear,+6310+N+May+Ave,+Oklahoma+City,+OK+73112/@35.535236,-97.5673917,17z/data=!4m13!1m4!3m3!1s0x87b21a584a3c2939:0x868a6f4ef959b593!2sAl's+Formal+Wear!3b1!4m7!1m0!1m5!1m1!1s0x87b21a584a3c2939:0x868a6f4ef959b593!2m2!1d-97.565203!2d35.535236","http://maps.apple.com/?daddr=6310,North+May+Avenue,Oklahoma+City,OK,73112",store.722@alsformalwear.com,marcus.grimes@alsformalwear.com,bill.womble@alsformalwear.com,,alice.leftwich@alsformalwear.com,11,19,11,18,11,18,11,19,11,18,10,17,12,17
724,Denise,Arbor Park,"17700 Highway 281 North, Suite 120",San Antonio,TX,78232,210-491-0202,Andrew Llanes,29.601156,-98.46982,11 - 8,11 - 6,11 - 6,11 - 8,11 - 6,10 - 5,12  - 5,arborpr,"https://www.google.com/maps/dir//Al's+Formal+Wear,+17700+U.S.+281+North,+Arbor+Park+Shopping+Center,+Arbor+Park+Ln,+San+Antonio,+TX+78232/@29.601156,-98.4720087,17z/data=!3m1!5s0x865c8a1a44b1e959:0x7edf0a3af4a3bd85!4m13!1m4!3m3!1s0x865c8a1a46f24435:0xdec373c41a094dc!2sAl's+Formal+Wear!3b1!4m7!1m0!1m5!1m1!1s0x865c8a1a46f24435:0xdec373c41a094dc!2m2!1d-98.46982!2d29.601156","http://maps.apple.com/?daddr=17700,Highway+281+North,Suite+120,San+Antonio,Texas,78232",store.724@alsformalwear.com,leonard.llanes@alsformalwear.com,denise.morales@alsformalwear.com,,andrew.llanes@alsformalwear.com,11,20,11,18,11,18,11,20,11,18,10,17,12,17
727,,Fry Road Katy,"19859 Katy Freeway, Suite A",Houston,TX,77094,281-579-2030,,29.784125,-95.715585,11 - 8,11 - 8,11 - 8,11 - 8,11 - 8,9 - 5,12  - 5,fryroad,"https://www.google.com/maps/dir//Al's+Formal+Wear,+19859+Katy+Fwy,+Houston,+TX+77094/@29.784082,-95.717606,17z/data=!4m13!1m4!3m3!1s0x8640d896605eff3b:0x282d651653105a54!2sAl's+Formal+Wear!3b1!4m7!1m0!1m5!1m1!1s0x8640d896605eff3b:0x282d651653105a54!2m2!1d-95.715585!2d29.784125","http://maps.apple.com/?daddr=19859,Katy+Freeway,Houston,Texas,77094",store.727@alsformalwear.com,leonard.llanes@alsformalwear.com,latanya.johnson@alsformalwear.com,,jessica.diaz@alsformalwear.com,11,20,11,20,11,20,11,20,11,20,9,17,12,17
729,Donald,Southlake Center,"200 North Kimball Avenue, Suite 203",Southlake,TX,76092,817-442-1117,Gary Waldrep,32.941488,-97.119299,11 - 7,Closed,11 - 6,11 - 7,11 - 6,10 - 5,Closed,southla,"https://www.google.com/maps/dir//Al's+Formal+Wear,+%23203,+Southlake+Corners,+200+N+Kimball+Ave,+Southlake,+TX+76092/@32.941488,-97.1214877,17z/data=!4m13!1m4!3m3!1s0x864dd4ead9f18b39:0xa0b9a23d61069bb4!2sAl's+Formal+Wear!3b1!4m7!1m0!1m5!1m1!1s0x864dd4ead9f18b39:0xa0b9a23d61069bb4!2m2!1d-97.119299!2d32.941488","http://maps.apple.com/?daddr=200,North+Kimball+Avenue,Suite+203,Southlake,Texas,76092",store.729@alsformalwear.com,marcus.grimes@alsformalwear.com,donald.doggett@alsformalwear.com,victoria.rohre@alsformalwear.com,gary.waldrep@alsformalwear.com,11,19,99,99,11,18,11,19,11,18,10,17,99,99
730,Donald,Metairie,"3544 Veterans Memorial Boulevard, Suite E",Metairie,LA,70002,504-885-3545,Darnekia Dowl,30.0028969,-90.1616913,11 - 8,11 - 6,11 - 6,11 - 8,11 - 6,9 - 5,Closed,metairi,"https://www.google.com/maps/dir//Al's+Formal+Wear,+3544+Veterans+Memorial+Blvd+%23200,+Metairie,+LA+70002/@30.0028969,-90.16388,17z/data=!4m13!1m4!3m3!1s0x8620b03b86439a73:0xc3626815141be56e!2sAl's+Formal+Wear!3b1!4m7!1m0!1m5!1m1!1s0x8620b03b86439a73:0xc3626815141be56e!2m2!1d-90.1616913!2d30.0028969","http://maps.apple.com/?daddr=3544,Veterans+Memorial+Boulevard,Suite+E,Metairie,Louisiana,70002",store.730@alsformalwear.com,leonard.llanes@alsformalwear.com,donald.daniels@alsformalwear.com,michael.daniel@alsformalwear.com,,11,20,11,18,11,18,11,20,11,18,9,17,99,99
733,Bill,Promenade,4020 South Yale Avenue,Tulsa,OK,74135,918-627-0500,Barbara Reynolds,36.1047471,-95.9231467,11 - 7,Closed,11 - 6,11 - 7,11 - 6,10 - 5,Closed,promnad,"https://www.google.com/maps/dir//Al's+Formal+Wear,+4020+S+Yale+Ave,+Tulsa,+OK+74135/@36.1047471,-95.9253354,17z/data=!4m13!1m4!3m3!1s0x87b692c7cac32f6d:0x404eef42920e80f!2sAl's+Formal+Wear!3b1!4m7!1m0!1m5!1m1!1s0x87b692c7cac32f6d:0x404eef42920e80f!2m2!1d-95.9231467!2d36.1047471","http://maps.apple.com/?daddr=4020,South+Yale+Avenue,Tulsa,Oklahoma,74135",store.733@alsformalwear.com,marcus.grimes@alsformalwear.com,bill.womble@alsformalwear.com,,barbara.reynolds@alsformalwear.com,11,19,99,99,11,18,11,19,11,18,10,17,99,99
734,Bill,Woodland Hills,7029 South Memorial Drive,Tulsa,OK,74133,918-250-1441,Bill Womble,36.0633389,-95.8816605,11 - 7,11 - 6,11 - 6,11 - 7,11 - 6,10 - 5,12  - 5,woodlnh,"https://www.google.com/maps/dir//Al's+Formal+Wear,+Woodland+Hills+Mall,+7029+S+Memorial+Dr,+Tulsa,+OK+74133/@36.0633389,-95.8838492,17z/data=!4m13!1m4!3m3!1s0x87b68d91bb25d11d:0xcc2a602e9ef01861!2sAl's+Formal+Wear!3b1!4m7!1m0!1m5!1m1!1s0x87b68d91bb25d11d:0xcc2a602e9ef01861!2m2!1d-95.8816605!2d36.0633389","http://maps.apple.com/?daddr=7029,South+Memorial+Drive,Tulsa,Oklahoma,74133",store.734@alsformalwear.com,marcus.grimes@alsformalwear.com,bill.womble@alsformalwear.com,,bill.womble@alsformalwear.com,11,19,11,18,11,18,11,19,11,18,10,17,12,17
736,Bill,Norman,590 Ed Noble Parkway,Norman,OK,73072,405-579-4422,Taylor Bread,35.211855,-97.484996,11 - 7,Closed,11 - 6,11 - 7,11 - 6,10 - 5,Closed,norman,"https://www.google.com/maps/dir//Al's+Formal+Wear,+Parkway+Plaza+Shopping+Center,+590+Ed+Noble+Pkwy,+Norman,+OK+73072/@35.211855,-97.4871847,17z/data=!4m13!1m4!3m3!1s0x87b26906471d05e7:0xd8570697d9ec6f63!2sAl's+Formal+Wear!3b1!4m7!1m0!1m5!1m1!1s0x87b26906471d05e7:0xd8570697d9ec6f63!2m2!1d-97.484996!2d35.211855","http://maps.apple.com/?daddr=5524,Weslayan+Street,Houston,Texas",store.736@alsformalwear.com,marcus.grimes@alsformalwear.com,bill.womble@alsformalwear.com,,taylor.bread@alsforamlwear.com,11,19,99,99,11,18,11,19,11,18,10,17,99,99
743,Donald,North Park Mall,"8687 North Central Expressway, Suite 907",Dallas,TX,75225,214-360-9944,Jason Crouse,32.869278,-96.772211,11 - 7,11 - 6,11 - 6,11 - 7,11 - 6,10 - 5,12  - 5,nrthpar,"https://www.google.com/maps/dir//Al's+Formal+Wear,+%23907,+NorthPark+Center,+8687+N+Central+Expy,+Dallas,+TX+75225/@32.869278,-96.7743997,17z/data=!4m13!1m4!3m3!1s0x864e9fbe46ec0473:0x52e3e666fc04be82!2sAl's+Formal+Wear!3b1!4m7!1m0!1m5!1m1!1s0x864e9fbe46ec0473:0x52e3e666fc04be82!2m2!1d-96.772211!2d32.869278","http://maps.apple.com/?daddr=8687,North+Central+Expressway,Suite+907,Dallas,Texas,75225",store.743@alsformalwear.com,marcus.grimes@alsformalwear.com,donald.doggett@alsformalwear.com,,jason.crouse@alsformalwear.com,11,19,11,18,11,18,11,19,11,18,10,17,12,17
749,Donald,North East Mall,"1101 Melbourne Road, Suite 4008",Hurst,TX,76053,817-284-9165,Carlos Nunez,32.830128,-97.202095,11 - 8,11 - 6,11 - 6,11 - 8,11 - 6,10 - 5,12  - 5,hurst,"https://www.google.com/maps/dir//Al's+Formal+Wear,+%234408+near,+Nordstrom+North+East+Mall,+North+East+Mall,+1101+Melbourne+Rd,+Hurst,+TX+76053/@32.830128,-97.2042837,17z/data=!3m1!5s0x864e78e0f3606fe9:0x663c92ccc1c687bb!4m13!1m4!3m3!1s0x864e78dc8fdf8e4d:0x373ff59e30c1a38f!2sAl's+Formal+Wear!3b1!4m7!1m0!1m5!1m1!1s0x864e78dc8fdf8e4d:0x373ff59e30c1a38f!2m2!1d-97.202095!2d32.830128","http://maps.apple.com/?daddr=1101,Melbourne+Road,Suite+4008,Hurst,Texas.76053",store.749@alsformalwear.com,marcus.grimes@alsformalwear.com,donald.doggett@alsformalwear.com,dale.harper@alsformalwear.com,carlos.nunez@alsformalwear.com,11,20,11,18,11,18,11,20,11,18,10,17,12,17
751,Donald,Hulen,"4811 Overton Ridge Boulevard, Suite 200",Fort Worth,TX,76132,817-346-6181,Dale Harper,32.675466,-97.3987553,11 - 7,11 - 6,11 - 6,11 - 7,11 - 6,10 - 5,12  - 5,hulen,"https://www.google.com/maps/dir//Al's+Formal+Wear,+South+Hulen,+4811+Overton+Ridge+Blvd+%23200,+Fort+Worth,+TX+76132/@32.675466,-97.400944,17z/data=!3m1!5s0x864e6d7eb7cc500f:0xe8c76fea99f544b0!4m13!1m4!3m3!1s0x864e6d7ecdc5ad49:0x24cefb01bf21c8e7!2sAl's+Formal+Wear!3b1!4m7!1m0!1m5!1m1!1s0x864e6d7ecdc5ad49:0x24cefb01bf21c8e7!2m2!1d-97.3987553!2d32.675466","http://maps.apple.com/?daddr=4811,Overton+Ridge+Boulevard,Suite+200,Fort+Worth,Texas,76132",store.751@alsformalwear.com,marcus.grimes@alsformalwear.com,donald.doggett@alsformalwear.com,,dale.harper@alsformalwear.com,11,19,11,18,11,18,11,19,11,18,10,17,12,17
753,Leonard,Temple,2930 South 31st Street,Temple,TX,76502,254-778-3309,Chelsea Wiatrek,31.072593,-97.36822,11 - 8,11 - 6,11 - 6,11 - 8,11 - 6,10 - 5,12  - 5,temple,"https://www.google.com/maps/dir//Al's+Formal+Wear,+2930+South+31st+St,+Market+Place+Shopping+Center,+Temple,+TX+76502/@31.072593,-97.3704087,17z/data=!4m13!1m4!3m3!1s0x86456b418460cd23:0xec070991f119989b!2sAl's+Formal+Wear!3b1!4m7!1m0!1m5!1m1!1s0x86456b418460cd23:0xec070991f119989b!2m2!1d-97.36822!2d31.072593","http://maps.apple.com/?daddr=2930,South+31st+Street,Temple,Texas,76502",store.753@alsformalwear.com,leonard.llanes@alsformalwear.com,,keenan.alford@alsformalwear.com,chelsea.wiatrek@alsformalwear.com,11,20,11,18,11,18,11,29,11,18,10,17,12,17
754,Leonard,Waco,803 North Valley Mills Drive,Waco,TX,76710,254-776-2663,Keenan Alford,31.529883,-97.179324,11 - 8,11 - 6,11 - 6,11 - 8,11 - 6,10 - 5,Closed,waco,"https://www.google.com/maps/dir//Al's+Formal+Wear,+803+N+Valley+Mills+Dr,+Waco,+TX+76710/@31.5289712,-97.1814623,16z/data=!4m13!1m4!3m3!1s0x864f83f7ff85aa4b:0x7c48084c16c6a3a7!2sAl's+Formal+Wear!3b1!4m7!1m0!1m5!1m1!1s0x864f83f7ff85aa4b:0x7c48084c16c6a3a7!2m2!1d-97.179324!2d31.529883","http://maps.apple.com/?daddr=803,North+Valley+Mills+Drive,Waco,Texas,76710",store.754@alsformalwear.com,leonard.llanes@alsformalwear.com,,,keenan.alford@alsformalwear.com,11,20,11,18,11,18,11,20,11,18,10,17,99,99
758,Denise,South Park Mall,"2310 Southwest Military Drive, Suite 219",San Antonio,TX,78224,210-924-5955,Esther Trevino,29.35537,-98.529992,11 - 8,11 - 6,11 - 6,11 - 8,11 - 6,10 - 5,12  - 5,militdr,"https://www.google.com/maps/dir//Al's+Formal+Wear,+2310+%23+South+Park+Mall,+South+Park+Mall,+219+SW+Military+Dr,+San+Antonio,+TX+78224/@29.35537,-98.5321807,17z/data=!3m1!5s0x865c59b515b696e1:0x1e54ca82b1c3b40b!4m13!1m4!3m3!1s0x865c5872a5d8bac9:0x9e178fa5de191705!2sAl's+Formal+Wear!3b1!4m7!1m0!1m5!1m1!1s0x865c5872a5d8bac9:0x9e178fa5de191705!2m2!1d-98.529992!2d29.35537","http://maps.apple.com/?daddr=2310,Southwest+Military+Drive,Suite+219,San+Antonio,Texas,78224",store.758@alsformalwear.com,leonard.llanes@alsformalwear.com,denise.morales@alsformalwear.com,lani.moriel@alsformalwear.com,esther.trevino@alsformalwear.com,11,20,11,18,11,18,11,20,11,18,10,17,12,17
761,Leonard,McAllen,1001 South 10th Street,McAllen,TX,78501,956-687-7721,Carlos Sanchez,26.193686,-98.23122,11 - 8,11 - 7,11 - 7,11 - 8,11 - 7,10 - 5,12  - 5,mcallen,"https://www.google.com/maps/dir//Al's+Formal+Wear,+VALLEYS+GOLD+EXCHANGE+-Tiffany+Plaza,+1001+S+10th+St,+McAllen,+TX+78501/@26.193686,-98.2334087,17z/data=!4m13!1m4!3m3!1s0x8665a75041c94f05:0x71b325649a12a76a!2sAl's+Formal+Wear!3b1!4m7!1m0!1m5!1m1!1s0x8665a75041c94f05:0x71b325649a12a76a!2m2!1d-98.23122!2d26.193686","http://maps.apple.com/?daddr=1001,South+10th+Street,McAllen,Texas,78501",store.761@alsformalwear.com,leonard.llanes@alsformalwear.com,,,carlos.sanchez@alsformalwear.com,11,20,11,19,11,19,11,20,11,19,10,17,12,17
762,Leonard,Harlingen,509 South Expressway 83,Harlingen,TX,78550,956-423-4643,Beatriz Sais,26.185395,-97.715107,11 - 8  ,11 - 6,11 - 6,11 - 8,11 - 6,10 - 5,12  - 5,harling,"https://www.google.com/maps/dir//AI's+Formal+Wear,+509+S+Expressway+83,+Harlingen,+TX+78550/@26.185395,-97.7172957,17z/data=!4m12!1m3!3m2!1s0x866f819401d72939:0x7e90a9f65b6c6751!2sAI's+Formal+Wear!4m7!1m0!1m5!1m1!1s0x866f819401d72939:0x7e90a9f65b6c6751!2m2!1d-97.715107!2d26.185395","http://maps.apple.com/?daddr=509,South+Expressway+83,Harlingen,Texas,78550",store.762@alsformalwear.com,leonard.llanes@alsformalwear.com,,carlos.sanchez@alsformalwear.com,beatriz.sais@alsformalwear.com,11,20,11,18,11,18,11,20,11,18,10,17,12,17
764,Leroy,Guadalupe,2828 Guadalupe Street,Austin,TX,78705,512-472-1697,Leroy Bryant,30.295012,-97.743058,11 - 8,11 - 6,11 - 6,11 - 8,11 - 6,10 - 5,12  - 5,guadalu,"https://www.google.com/maps/dir//Al's+Formal+Wear,+2828+Guadalupe+St,+Austin,+TX+78705/@30.295012,-97.7452467,17z/data=!4m13!1m4!3m3!1s0x8644b57f72501113:0x3a7257fef3e1e381!2sAl's+Formal+Wear!3b1!4m7!1m0!1m5!1m1!1s0x8644b57f72501113:0x3a7257fef3e1e381!2m2!1d-97.743058!2d30.295012","http://maps.apple.com/?daddr= 2828,Guadalupe+Street,Austin,Texas,78705",store.764@alsformalwear.com,leonard.llanes@alsformalwear.com,leroy.bryant@alsformalwear.com,,leroy.bryant@alsformalwear.com,11,20,11,18,11,18,11,20,11,18,10,17,12,17
766,Leroy,Gateway Plaza,"10001 Research Boulevard, Suite 150",Austin,TX,78759,512-795-0771,n/a,30.392501,-97.745254,11 - 8,11 - 6,11 - 6,11 - 8,11 - 6,10 - 5,Closed,gateway,"https://www.google.com/maps/dir//Al's+Formal+Wear,+10001+Research+Blvd+%23150,+Austin,+TX+78759/@30.392501,-97.7474427,17z/data=!4m13!1m4!3m3!1s0x8644ccf3f7fab7d5:0x5b5e6258f4b0fa66!2sAl's+Formal+Wear!3b1!4m7!1m0!1m5!1m1!1s0x8644ccf3f7fab7d5:0x5b5e6258f4b0fa66!2m2!1d-97.745254!2d30.392501","http://maps.apple.com/?daddr=10001,Research+Boulevard,Suite+150,Austin,Texas,78759",store.766@alsformalwear.com,leonard.llanes@alsformalwear.com,leroy.bryant@alsformalwear.com,,channeille.stewart@alsformalwear.com,11,20,11,18,11,18,11,20,11,18,10,17,99,99
771,Donald,Longview,"303 West Loop 281, Suite 100",Longview,TX,75605,903-663-8888,Tasha Bain,32.5428566,-94.7520802,11 - 7,11 - 6,11 - 6,11 - 7,11 - 6,10 - 5,12  - 5,longvie,"https://www.google.com/maps/dir//Al's+Formal+Wear,+303+W+Loop+281+%23100,+Longview,+TX+75605/@32.5428566,-94.7542689,17z/data=!4m13!1m4!3m3!1s0x86363f34457ad4b5:0xa3039e97be5517d1!2sAl's+Formal+Wear!3b1!4m7!1m0!1m5!1m1!1s0x86363f34457ad4b5:0xa3039e97be5517d1!2m2!1d-94.7520802!2d32.5428566","http://maps.apple.com/?daddr=303,West+Loop+281,Suite+100,Longview,Texas,75605",store.771@alsformalwear.com,marcus.grimes@alsformalwear.com,donald.doggett@alsformalwear.com,jason.crouse@alsformalwear.com,tasha.bain@alsformalwear.com,11,19,11,18,11,18,11,19,11,18,10,17,12,17
774,Leroy,Round Rock,"115 Sundance Parkway, Suite 210",Round Rock,TX,78681,512-248-2500,Ashley Gorman,30.483247,-97.677848,11 - 8,11 - 7,11 - 7,11 - 8,11 - 7,10 - 5,12  - 5,rndrock,"https://www.google.com/maps/dir//Al's+Formal+Wear,+La+Frontera+Village,+115+Sundance+Pkwy+%23210,+Round+Rock,+TX+78681/@30.483247,-97.6800367,17z/data=!3m1!5s0x8644ce1f9dea9251:0x7edf0a3a307e1325!4m13!1m4!3m3!1s0x8644ce1f7f80cf7f:0x933005629c953223!2sAl's+Formal+Wear!3b1!4m7!1m0!1m5!1m1!1s0x8644ce1f7f80cf7f:0x933005629c953223!2m2!1d-97.677848!2d30.483247","http://maps.apple.com/?daddr= 115,Sundance+Parkway,Suite+210,Round+Rock,Texas,78681",store.774@alsformalwear.com,leonard.llanes@alsformalwear.com,leroy.bryant@alsformalwear.com,,ashley.gorman@alsformalwear.com,11,20,11,19,11,19,11,20,11,19,9,17,12,17
776,LaTanya,Bunker Hill,"9930 Katy Freeway, Suite 100",Houston,TX,77055,713-827-7270,Ehrin Bass,29.785576,-95.538074,11 - 8,11 - 6,11 - 6,11 - 8,11 - 6,9 - 5,12  - 5,oldkaty,"https://www.google.com/maps/dir//Al's+Formal+Wear,+9930+Katy+Fwy+%23100,+Houston,+TX+77055/@29.785576,-95.5402627,17z/data=!4m13!1m4!3m3!1s0x8640c495ac49c5d3:0x9b2fb93d9a15b2e2!2sAl's+Formal+Wear!3b1!4m7!1m0!1m5!1m1!1s0x8640c495ac49c5d3:0x9b2fb93d9a15b2e2!2m2!1d-95.538074!2d29.785576","http://maps.apple.com/?daddr=9930,Katy+Freeway,Suite+100,Houston,Texas,77055",store.776@alsformalwear.com,leonard.llanes@alsformalwear.com,latanya.johnson@alsformalwear.com,jessica.diaz@alsformalwear.com,ehrin.bass@alsformalwear.com,11,20,11,18,11,18,11,20,11,18,9,17,12,17
784,LaTanya,Fairmont Pasadena,5763 Fairmont Parkway,Pasadena,TX,77505,281-487-4672,Delaina Alfred,29.650341,-95.152467,11 - 8,11 - 6,11 - 6,11 - 8,11 - 6,9 - 5,12  - 5,fairmon,"https://www.google.com/maps/dir//Al's+Formal+Wear,+5763+Fairmont+Parkway,+Pasadena,+TX/@29.6503364,-95.1874863,13z/data=!3m2!4b1!5s0x8640bdee4a8e9d6d:0x7edf0a3a88db1a05!4m8!4m7!1m0!1m5!1m1!1s0x864098d0955b7b5d:0xc45f22e274c44003!2m2!1d-95.152467!2d29.650341","http://maps.apple.com/?daddr=5763,Fairmont+Parkway,Pasadena,Texas,77505",store.784@alsformalwear.com,leonard.llanes@alsformalwear.com,latanya.johnson@alsformalwear.com,lupe.regalado@alsformalwear.com,delaina.alfred@alsformalwear.com,11,20,11,18,11,18,11,20,11,18,9,17,12,17
785,LaTanya,Gulfgate,735 Gulfgate Center Mall,Houston,TX,77087,713-643-4693,Chase Moore,29.696196,-95.29694,11 - 7,11 - 6,11 - 6,11 - 7,11 - 6,10 - 5,12  - 5,gulfgat,"https://www.google.com/maps/dir//Al's+Formal+Wear,+Gulfgate+Center,+735+Gulfgate+Center+Mall,+Houston,+TX+77087/@29.696196,-95.2991287,17z/data=!3m1!5s0x8640bdee4a8e9d6d:0x7edf0a3a88db1a05!4m13!1m4!3m3!1s0x8640bdef84ac1573:0xb41e0a0de0917e3b!2sAl's+Formal+Wear!3b1!4m7!1m0!1m5!1m1!1s0x8640bdef84ac1573:0xb41e0a0de0917e3b!2m2!1d-95.29694!2d29.696196","http://maps.apple.com/?daddr=735,Gulfgate+Center+Mall,Houston,Texas,77087",store.785@alsformalwear.com,leonard.llanes@alsformalwear.com,latanya.johnson@alsformalwear.com,lupe.regalado@alsformalwear.com,,11,19,11,18,11,18,11,19,11,18,10,17,12,17
786,Donald,Frisco,"3401 Preston Road, Suite 5",Frisco,TX,75034,214-618-4390,Carolyn Engle,33.1075346,-96.8064304,11 - 7,11 - 6,11 - 6,11 - 7,11 - 6,10 - 5,12  - 5,frisco,"https://www.google.com/maps/dir//Al's+Formal+Wear,+3401+Preston+Rd+%235,+Frisco,+TX+75034/@33.1075346,-96.8086191,17z/data=!3m1!5s0x864c3cf1daaaa31d:0xad0170a71371a420!4m13!1m4!3m3!1s0x864c3cee35ba442f:0x5587ebdadcb5c45!2sAl's+Formal+Wear!3b1!4m7!1m0!1m5!1m1!1s0x864c3cee35ba442f:0x5587ebdadcb5c45!2m2!1d-96.8064304!2d33.1075346","http://maps.apple.com/?daddr=3401,Preston+Road,Suite+5,Frisco,Texas,75034",store.786@alsformalwear.com,marcus.grimes@alsformalwear.com,donald.doggett@alsformalwear.com,victoria.rohre@alsformalwear.com,carolyn.engle@alsformalwear.com,11,19,11,18,11,18,11,19,11,18,10,17,12,17
788,Donald,Baton Rouge,"2380 Towne Center Boulevard, Suite 1030",Baton Rouge,LA,70806,225-929-6900,Donald Daniels,30.431497,-91.1155,11 - 8,11 - 6,11 - 6,11 - 8,11 - 6,9 - 5,12  - 5,cortana,"https://www.google.com/maps/dir//Al's+Formal+Wear,+Towne+Center+At+Cedar+Lodge,+2380+Town+Center+Blvd+%231030,+Baton+Rouge,+LA+70809/@30.431497,-91.1176887,17z/data=!3m1!5s0x8626a38aaf0e10ed:0x7edf0a3ae3cddb95!4m13!1m4!3m3!1s0x8626a38ab7ab18e1:0xf17b30b91e3507b1!2sAl's+Formal+Wear!3b1!4m7!1m0!1m5!1m1!1s0x8626a38ab7ab18e1:0xf17b30b91e3507b1!2m2!1d-91.1155!2d30.431497","http://maps.apple.com/?daddr=2380,Towne+Center+Boulevard,Suite+1030,Baton+Rouge,Louisiana,70806",store.788@alsformalwear.com,leonard.llanes@alsformalwear.com,donald.daniels@alsformalwear.com,,donald.daniels@alsformalwear.com,11,20,11,18,11,18,11,20,11,18,9,17,12,17